OBJECT_NAME,OBJECT_ID,EPOCH,MEAN_MOTION,ECCENTRICITY,INCLINATION,RA_OF_ASC_NODE,ARG_OF_PERICENTER,MEAN_ANOMALY,EPHEMERIS_TYPE,CLASSIFICATION_TYPE,NORAD_CAT_ID,ELEMENT_SET_NO,REV_AT_EPOCH,BSTAR,MEAN_MOTION_DOT,MEAN_MOTION_DDOT
SAUDISAT 1C (SO-50),2002-058C,2026-06-06T16:52:37.290432,14.83024338,.0075466,64.5504,161.4222,264.4088,94.8408,0,U,27607,999,26290,.15193362E-3,.1144E-4,0
SAUDISAT 2,2004-025F,2026-06-06T17:24:48.659616,14.56677808,.00240859,98.5506,157.4372,331.5636,28.4246,0,U,28371,999,16422,.82010002E-4,.318E-5,0
SAUDISAT 3,2007-012B,2026-06-07T03:01:56.212320,14.71419750,.00132678,98.1452,108.5206,258.7826,101.1890,0,U,31118,999,2626,.5638825E-4,.298E-5,0
PISAT,2016-059B,2026-06-06T18:58:08.742144,14.68965750,.00276911,97.8178,158.6901,237.2056,122.6482,0,U,41784,999,51821,.18529938E-3,.1044E-4,0
FLYING LAPTOP,2017-042G,2026-06-07T07:40:45.911712,15.01081705,.00190102,97.4653,314.2358,153.8139,206.4051,0,U,42831,999,48497,.34860958E-3,.4419E-4,0
SALSAT,2020-068K,2026-06-06T17:52:38.014752,15.29647918,.00090499,97.8851,160.1753,349.8452,10.2602,0,U,46495,999,31376,.35497906E-3,.10129E-3,0
